     3.05           N: GNSS NAV DATA    G                   RINEX VERSION / TYPE
GSPFLib             IFEN GmbH           20250903 135419 UTC PGM / RUN BY / DATE
    18                  GPS                                 LEAP SECONDS
                                                            END OF HEADER
G15 2025 04 22 16 00 00 0.000000000000e+00 0.000000000000e+00 0.000000000000e+00
     1.340000000000e+02 5.000000000000e-01 5.714523747000e-12 1.679324920111e+00
     0.000000000000e+00 9.000000000000e-03 9.000000000000e-09 5.153611355157e+03
     2.304000000000e+05 0.000000000000e+00 8.195037464399e-01-5.000000000000e-09
     9.565980497625e-01 0.000000000000e+00 2.932153143350e+00-7.844055939588e-09
    -5.714523747000e-12 0.000000000000e+00 2.363000000000e+03 1.000000000000e+00
     0.000000000000e+00 0.000000000000e+00 0.000000000000e+00 1.340000000000e+02
     0.000000000000e+00 4.000000000000e+00 0.000000000000e+00 0.000000000000e+00
G16 2025 04 22 16 00 00 0.000000000000e+00 0.000000000000e+00 0.000000000000e+00
     1.340000000000e+02-5.000000000000e-01-5.714523747000e-12 2.929295903875e+00
     0.000000000000e+00 9.000000000000e-03-9.000000000000e-09 5.153611355157e+03
     2.304000000000e+05 0.000000000000e+00 1.875842365487e+00-5.000000000000e-09
     9.565980497625e-01 0.000000000000e+00 3.141592653590e+00-7.828383500148e-09
    -5.714523747000e-12 0.000000000000e+00 2.363000000000e+03 1.000000000000e+00
     0.000000000000e+00 0.000000000000e+00 0.000000000000e+00 1.340000000000e+02
     0.000000000000e+00 4.000000000000e+00 0.000000000000e+00 0.000000000000e+00
G17 2025 04 22 16 00 00 0.000000000000e+00 0.000000000000e+00 0.000000000000e+00
     1.340000000000e+02 0.000000000000e+00 0.000000000000e+00-2.303358813260e+00
     9.000000000000e-09 9.000000000000e-03 0.000000000000e+00 5.153611355157e+03
     2.304000000000e+05 5.000000000000e-09 1.871271831565e+00 0.000000000000e+00
     9.599310885969e-01 5.000000000000e-01-2.932153143350e+00-7.836219719868e-09
     0.000000000000e+00 0.000000000000e+00 2.363000000000e+03 1.000000000000e+00
     0.000000000000e+00 0.000000000000e+00 0.000000000000e+00 1.340000000000e+02
     0.000000000000e+00 4.000000000000e+00 0.000000000000e+00 0.000000000000e+00
G18 2025 04 22 16 00 00 0.000000000000e+00 0.000000000000e+00 0.000000000000e+00
     1.340000000000e+02 5.000000000000e-01 5.714523747000e-12-1.252828223246e+00
     9.000000000000e-09 9.000000000000e-03 9.000000000000e-09 5.153611355157e+03
     2.304000000000e+05 5.000000000000e-09 1.866701297636e+00 0.000000000000e+00
     9.599310885969e-01 5.000000000000e-01-2.722713633111e+00-7.844055939588e-09
     0.000000000000e+00 0.000000000000e+00 2.363000000000e+03 1.000000000000e+00
     0.000000000000e+00 0.000000000000e+00 0.000000000000e+00 1.340000000000e+02
     0.000000000000e+00 4.000000000000e+00 0.000000000000e+00 0.000000000000e+00
G19 2025 04 22 16 00 00 0.000000000000e+00 0.000000000000e+00 0.000000000000e+00
     1.340000000000e+02-5.000000000000e-01-5.714523747000e-12-2.122967497202e-01
    -9.000000000000e-09 9.000000000000e-03-9.000000000000e-09 5.153611355157e+03
     2.304000000000e+05 5.000000000000e-09 1.875842365487e+00 0.000000000000e+00
     9.599310885969e-01-5.000000000000e-01-2.513274122872e+00-7.828383500148e-09
     0.000000000000e+00 0.000000000000e+00 2.363000000000e+03 1.000000000000e+00
     0.000000000000e+00 0.000000000000e+00 0.000000000000e+00 1.340000000000e+02
     0.000000000000e+00 4.000000000000e+00 0.000000000000e+00 0.000000000000e+00
G20 2025 04 22 16 00 00 0.000000000000e+00 0.000000000000e+00 0.000000000000e+00
     1.340000000000e+02 0.000000000000e+00 0.000000000000e+00 8.382338403240e-01
    -9.000000000000e-09 9.000000000000e-03 0.000000000000e+00 5.153611355157e+03
     2.304000000000e+05 5.000000000000e-09 1.871271831565e+00 0.000000000000e+00
     9.599310885969e-01-5.000000000000e-01-2.303834612633e+00-7.836219719868e-09
     0.000000000000e+00 0.000000000000e+00 2.363000000000e+03 1.000000000000e+00
     0.000000000000e+00 0.000000000000e+00 0.000000000000e+00 1.340000000000e+02
     0.000000000000e+00 4.000000000000e+00 0.000000000000e+00 0.000000000000e+00
G21 2025 04 22 16 00 00 0.000000000000e+00 0.000000000000e+00 0.000000000000e+00
     1.340000000000e+02 5.000000000000e-01 5.714523747000e-12 2.098203940589e+00
     0.000000000000e+00 9.000000000000e-03 9.000000000000e-09 5.153611355157e+03
     2.304000000000e+05 5.000000000000e-09 2.913898848826e+00 5.000000000000e-09
     9.632641274312e-01 0.000000000000e+00-2.094395102393e+00-7.844055939588e-09
     5.714523747000e-12 0.000000000000e+00 2.363000000000e+03 1.000000000000e+00
     0.000000000000e+00 0.000000000000e+00 0.000000000000e+00 1.340000000000e+02
     0.000000000000e+00 4.000000000000e+00 0.000000000000e+00 0.000000000000e+00
G22 2025 04 22 16 00 00 0.000000000000e+00 0.000000000000e+00 0.000000000000e+00
     1.340000000000e+02-5.000000000000e-01-5.714523747000e-12 3.138735414122e+00
     0.000000000000e+00 9.000000000000e-03-9.000000000000e-09 5.153611355157e+03
     2.304000000000e+05 5.000000000000e-09 2.923039916677e+00 5.000000000000e-09
     9.632641274312e-01 0.000000000000e+00-1.884955592154e+00-7.828383500148e-09
     5.714523747000e-12 0.000000000000e+00 2.363000000000e+03 1.000000000000e+00
     0.000000000000e+00 0.000000000000e+00 0.000000000000e+00 1.340000000000e+02
     0.000000000000e+00 4.000000000000e+00 0.000000000000e+00 0.000000000000e+00
G23 2025 04 22 16 00 00 0.000000000000e+00 0.000000000000e+00 0.000000000000e+00
     1.340000000000e+02 0.000000000000e+00 0.000000000000e+00-2.093919303028e+00
     9.000000000000e-09 9.000000000000e-03 0.000000000000e+00 5.153611355157e+03
     2.304000000000e+05 5.000000000000e-09 2.918469382755e+00 5.000000000000e-09
     9.632641274312e-01 5.000000000000e-01-1.675516081915e+00-7.836219719868e-09
     5.714523747000e-12 0.000000000000e+00 2.363000000000e+03 1.000000000000e+00
     0.000000000000e+00 0.000000000000e+00 0.000000000000e+00 1.340000000000e+02
     0.000000000000e+00 4.000000000000e+00 0.000000000000e+00 0.000000000000e+00
G24 2025 04 22 16 00 00 0.000000000000e+00 0.000000000000e+00 0.000000000000e+00
     1.340000000000e+02 5.000000000000e-01 5.714523747000e-12-1.043388712999e+00
     9.000000000000e-09 9.000000000000e-03 9.000000000000e-09 5.153611355157e+03
     2.304000000000e+05 5.000000000000e-09 2.913898848826e+00 5.000000000000e-09
     9.632641274312e-01 5.000000000000e-01-1.466076571675e+00-7.844055939588e-09
     5.714523747000e-12 0.000000000000e+00 2.363000000000e+03 1.000000000000e+00
     0.000000000000e+00 0.000000000000e+00 0.000000000000e+00 1.340000000000e+02
     0.000000000000e+00 4.000000000000e+00 0.000000000000e+00 0.000000000000e+00
G25 2025 04 22 16 00 00 0.000000000000e+00 0.000000000000e+00 0.000000000000e+00
     1.340000000000e+02-5.000000000000e-01-5.714523747000e-12-2.857239473478e-03
    -9.000000000000e-09 9.000000000000e-03-9.000000000000e-09 5.153611355157e+03
     2.304000000000e+05-5.000000000000e-09 2.923039916677e+00-5.000000000000e-09
     9.565980497625e-01-5.000000000000e-01-1.256637061436e+00-7.828383500148e-09
    -5.714523747000e-12 0.000000000000e+00 2.363000000000e+03 1.000000000000e+00
     0.000000000000e+00 0.000000000000e+00 0.000000000000e+00 1.340000000000e+02
     0.000000000000e+00 4.000000000000e+00 0.000000000000e+00 0.000000000000e+00
G26 2025 04 22 16 00 00 0.000000000000e+00 0.000000000000e+00 0.000000000000e+00
     1.340000000000e+02 0.000000000000e+00 0.000000000000e+00 1.257112860807e+00
    -9.000000000000e-09 9.000000000000e-03 0.000000000000e+00 5.153611355157e+03
     2.304000000000e+05-5.000000000000e-09-2.317518373227e+00-5.000000000000e-09
     9.565980497625e-01-5.000000000000e-01-1.047197551197e+00-7.836219719868e-09
    -5.714523747000e-12 0.000000000000e+00 2.363000000000e+03 1.000000000000e+00
     0.000000000000e+00 0.000000000000e+00 0.000000000000e+00 1.340000000000e+02
     0.000000000000e+00 4.000000000000e+00 0.000000000000e+00 0.000000000000e+00
G27 2025 04 22 16 00 00 0.000000000000e+00 0.000000000000e+00 0.000000000000e+00
     1.340000000000e+02 5.000000000000e-01 5.714523747000e-12 2.307643450836e+00
     0.000000000000e+00 9.000000000000e-03 9.000000000000e-09 5.153611355157e+03
     2.304000000000e+05-5.000000000000e-09-2.322088907156e+00-5.000000000000e-09
     9.565980497625e-01 0.000000000000e+00-8.377580409573e-01-7.844055939588e-09
    -5.714523747000e-12 0.000000000000e+00 2.363000000000e+03 1.000000000000e+00
     0.000000000000e+00 0.000000000000e+00 0.000000000000e+00 1.340000000000e+02
     0.000000000000e+00 4.000000000000e+00 0.000000000000e+00 0.000000000000e+00
G28 2025 04 22 16 00 00 0.000000000000e+00 0.000000000000e+00 0.000000000000e+00
     1.340000000000e+02-5.000000000000e-01-5.714523747000e-12-2.935010382825e+00
     0.000000000000e+00 9.000000000000e-03-9.000000000000e-09 5.153611355157e+03
     2.304000000000e+05-5.000000000000e-09-2.312947839305e+00-5.000000000000e-09
     9.565980497625e-01 0.000000000000e+00-6.283185307180e-01-7.828383500148e-09
    -5.714523747000e-12 0.000000000000e+00 2.363000000000e+03 1.000000000000e+00
     0.000000000000e+00 0.000000000000e+00 0.000000000000e+00 1.340000000000e+02
     0.000000000000e+00 4.000000000000e+00 0.000000000000e+00 0.000000000000e+00
